[{"OBJECT_NAME":"NAVSTAR 43 (USA 132)","OBJECT_ID":"1997-035A","EPOCH":"2026-06-16T04:54:23.504544","MEAN_MOTION":2.00563771,"ECCENTRICITY":0.0102442,"INCLINATION":55.9944,"RA_OF_ASC_NODE":98.6138,"ARG_OF_PERICENTER":56.9091,"MEAN_ANOMALY":304.0464,"EPHEMERIS_TYPE":0,"CLASSIFICATION_TYPE":"U","NORAD_CAT_ID":24876,"ELEMENT_SET_NO":999,"REV_AT_EPOCH":21193,"BSTAR":0,"MEAN_MOTION_DOT":-1.2e-7,"MEAN_MOTION_DDOT":0}]
